ORBCOMM FM22 [-]        
1 25476U 98053B   17345.87169546  .00000039  00000-0  65230-4 0  9997
2 25476  45.0087 230.0632 0001442 273.7238  86.3443 14.32714823  3410
